*******************************************************************************
 Revised: April 12, 2021                 Earth                              399
 
 GEOPHYSICAL PROPERTIES (revised May 9, 2022):
  Vol. Mean Radius (km)    = 6371.01+-0.02   Mass x10^24 (kg)= 5.97219+-0.0006
  Equ. radius, km          = 6378.137        Mass layers:
  Polar axis, km           = 6356.752          Atmos         = 5.1   x 10^18 kg
  Flattening               = 1/298.257223563   oceans        = 1.4   x 10^21 kg
  Density, g/cm^3          = 5.51              crust         = 2.6   x 10^22 kg
  J2 (IERS 2010)           = 0.00108262545     mantle        = 4.043 x 10^24 kg
  g_p, m/s^2  (polar)      = 9.8321863685      outer core    = 1.835 x 10^24 kg
  g_e, m/s^2  (equatorial) = 9.7803267715      inner core    = 9.675 x 10^22 kg
  g_o, m/s^2               = 9.82022         Fluid core rad  = 3480 km
  GM, km^3/s^2             = 398600.435436   Inner core rad  = 1215 km
  GM 1-sigma, km^3/s^2     =      0.0014     Escape velocity = 11.186 km/s
  Rot. Rate (rad/s)        = 0.00007292115   Surface area:
  Mean sidereal day, hr    = 23.9344695944     land          = 1.48 x 10^8 km
  Mean solar day 2000.0, s = 86400.002         sea           = 3.62 x 10^8 km
  Mean solar day 1820.0, s = 86400.0         Love no., k2    = 0.299
  Moment of inertia        = 0.3308          Atm. pressure   = 1.0 bar
  Mean surface temp (Ts), K= 287.6           Volume, km^3    = 1.08321 x 10^12
  Mean effect. temp (Te), K= 255             Magnetic moment = 0.61 gauss Rp^3
  Geometric albedo         = 0.367           Vis. mag. V(1,0)= -3.86
  Solar Constant (W/m^2)   = 1367.6 (mean), 1414 (perihelion), 1322 (aphelion)
 HELIOCENTRIC ORBIT CHARACTERISTICS:
  Obliquity to orbit, deg  = 23.4392911  Sidereal orb period  = 1.0000174 y
  Orbital speed, km/s      = 29.79       Sidereal orb period  = 365.25636 d
  Mean daily motion, deg/d = 0.9856474   Hill's sphere radius = 234.9       
*******************************************************************************


*******************************************************************************
Ephemeris / WWW_USER Sun Jun 28 02:32:41 2026 Pasadena, USA      / Horizons
*******************************************************************************
Target body name: Earth (399)                     {source: DE441}
Center body name: Solar System Barycenter (0)     {source: DE441}
Center-site name: BODY CENTER
*******************************************************************************
Start time      : A.D. 2026-Aug-15 00:00:00.0000 TDB
Stop  time      : A.D. 2026-Oct-15 00:00:00.0000 TDB
Step-size       : 1440 minutes
*******************************************************************************
Center geodetic : 0.0, 0.0, 0.0                   {E-lon(deg),Lat(deg),Alt(km)}
Center cylindric: 0.0, 0.0, 0.0                   {E-lon(deg),Dxy(km),Dz(km)}
Center radii    : (undefined)
Output units    : KM-S
Calendar mode   : Mixed Julian/Gregorian
Output type     : GEOMETRIC cartesian states
Output format   : 2 (position and velocity)
Reference frame : Ecliptic of J2000.0
*******************************************************************************
            JDTDB,            Calendar Date (TDB),                      X,                      Y,                      Z,                     VX,                     VY,                     VZ,
**************************************************************************************************************************************************************************************************
$$SOE
2461267.500000000, A.D. 2026-Aug-15 00:00:00.0000,  1.189142448665072E+08, -9.440731096368587E+07,  2.014107275912166E+04,  1.793591145407524E+01,  2.332687766207693E+01, -6.258959659231067E-04,
2461268.500000000, A.D. 2026-Aug-16 00:00:00.0000,  1.204467406749035E+08, -9.237862335763668E+07,  2.008100890663266E+04,  1.753766207230425E+01,  2.363228181368347E+01, -7.730828723513383E-04,
2461269.500000000, A.D. 2026-Aug-17 00:00:00.0000,  1.219446068344833E+08, -9.032386066425884E+07,  2.000617628052086E+04,  1.713434074091207E+01,  2.393046480567972E+01, -9.656603185810297E-04,
2461270.500000000, A.D. 2026-Aug-18 00:00:00.0000,  1.234074153857780E+08, -8.824364717436159E+07,  1.991320069976524E+04,  1.672617909633346E+01,  2.422142133525001E+01, -1.190971525835138E-03,
2461271.500000000, A.D. 2026-Aug-19 00:00:00.0000,  1.248347569374346E+08, -8.613860692392364E+07,  1.979978281950951E+04,  1.631337612602699E+01,  2.450516039301131E+01, -1.436931586708212E-03,
2461272.500000000, A.D. 2026-Aug-20 00:00:00.0000,  1.262262381029978E+08, -8.400936294567266E+07,  1.966462190831453E+04,  1.589610456988693E+01,  2.478169499337467E+01, -1.692548748421174E-03,
2461273.500000000, A.D. 2026-Aug-21 00:00:00.0000,  1.275814795560852E+08, -8.185653716130170E+07,  1.950731725661457E+04,  1.547451832698029E+01,  2.505103745005641E+01, -1.947957705393577E-03,
2461274.500000000, A.D. 2026-Aug-22 00:00:00.0000,  1.289001146803191E+08, -7.968075049070902E+07,  1.932827979651093E+04,  1.504875854287777E+01,  2.531319879811097E+01, -2.194184901849638E-03,
2461275.500000000, A.D. 2026-Aug-23 00:00:00.0000,  1.301817886450669E+08, -7.748262289303169E+07,  1.912866870541126E+04,  1.461895727406379E+01,  2.556819067693069E+01, -2.422831604167897E-03,
2461276.500000000, A.D. 2026-Aug-24 00:00:00.0000,  1.314261576799383E+08, -7.526277319448462E+07,  1.891035388622060E+04,  1.418523841802341E+01,  2.581602814838715E+01, -2.625810743111856E-03,
2461277.500000000, A.D. 2026-Aug-25 00:00:00.0000,  1.326328883157528E+08, -7.302181867962931E+07,  1.867589529561996E+04,  1.374771606166916E+01,  2.605673215576054E+01, -2.795233342590464E-03,
2461278.500000000, A.D. 2026-Aug-26 00:00:00.0000,  1.338016563877991E+08, -7.076037452632669E+07,  1.842852316845953E+04,  1.330649074081925E+01,  2.629033051180294E+01, -2.923509780986322E-03,
2461279.500000000, A.D. 2026-Aug-27 00:00:00.0000,  1.349321456549542E+08, -6.847905325285643E+07,  1.817209888912737E+04,  1.286164446355493E+01,  2.651685649783604E+01, -3.003698697842339E-03,
2461280.500000000, A.D. 2026-Aug-28 00:00:00.0000,  1.360240459788883E+08, -6.617846441178796E+07,  1.791103528046608E+04,  1.241323574111893E+01,  2.673634449806952E+01, -3.030090634414506E-03,
2461281.500000000, A.D. 2026-Aug-29 00:00:00.0000,  1.370770511288329E+08, -6.385921479122297E+07,  1.765015873613209E+04,  1.196129615362677E+01,  2.694882268595047E+01, -2.998952937469213E-03,
2461282.500000000, A.D. 2026-Aug-30 00:00:00.0000,  1.380908564104494E+08, -6.152190934913775E+07,  1.739450468191877E+04,  1.150582993014805E+01,  2.715430357115041E+01, -2.909301715604329E-03,
2461283.500000000, A.D. 2026-Aug-31 00:00:00.0000,  1.390651564257066E+08, -5.916715300325014E+07,  1.714905118952319E+04,  1.104681748963044E+01,  2.735277395020976E+01, -2.763533393997264E-03,
2461284.500000000, A.D. 2026-Sep-01 00:00:00.0000,  1.399996433142931E+08, -5.679555324762839E+07,  1.691840965371951E+04,  1.058422296535738E+01,  2.754418612248028E+01, -2.567766698064133E-03,
2461285.500000000, A.D. 2026-Sep-02 00:00:00.0000,  1.408940057870809E+08, -5.440772341513586E+07,  1.670650165608898E+04,  1.011800480399494E+01,  2.772845192767136E+01, -2.331814230521090E-03,
2461286.500000000, A.D. 2026-Sep-03 00:00:00.0000,  1.417479291582595E+08, -5.200428630165573E+07,  1.651625442884862E+04,  9.648128045864743E+00,  2.790544039379794E+01, -2.068786836717962E-03,
2461287.500000000, A.D. 2026-Sep-04 00:00:00.0000,  1.425610964644808E+08, -4.958587783424413E+07,  1.634934441601112E+04,  9.174577037280535E+00,  2.807497903887785E+01, -1.794386626901456E-03,
2461288.500000000, A.D. 2026-Sep-05 00:00:00.0000,  1.433331906721513E+08, -4.715315047709884E+07,  1.620601333751529E+04,  8.697367819094953E+00,  2.823685861570508E+01, -1.525941713378387E-03,
2461289.500000000, A.D. 2026-Sep-06 00:00:00.0000,  1.440638979238687E+08, -4.470677607708068E+07,  1.608497810488567E+04,  8.216559699305360E+00,  2.839084139957571E+01, -1.281198835204833E-03,
2461290.500000000, A.D. 2026-Sep-07 00:00:00.0000,  1.447529117198091E+08, -4.224744782204407E+07,  1.598345551436581E+04,  7.732265096208294E+00,  2.853667353520996E+01, -1.076876921636938E-03,
2461291.500000000, A.D. 2026-Sep-08 00:00:00.0000,  1.453999378094419E+08, -3.977588094347483E+07,  1.589732020227797E+04,  7.244655726104798E+00,  2.867410172482882E+01, -9.270508184240356E-04,
2461292.500000000, A.D. 2026-Sep-09 00:00:00.0000,  1.460046993621670E+08, -3.729281182207482E+07,  1.582140239235945E+04,  6.753962405187999E+00,  2.880289315186067E+01, -8.415819876965713E-04,
2461293.500000000, A.D. 2026-Sep-10 00:00:00.0000,  1.465669417595046E+08, -3.479899534238102E+07,  1.574990643505752E+04,  6.260466267006428E+00,  2.892285536796816E+01, -8.249591723004102E-04,
2461294.500000000, A.D. 2026-Sep-11 00:00:00.0000,  1.470864362524617E+08, -3.229520070313463E+07,  1.567689791347831E+04,  5.764481582508849E+00,  2.903385131585734E+01, -8.759222636456343E-04,
2461295.500000000, A.D. 2026-Sep-12 00:00:00.0000,  1.475629818865762E+08, -2.978220630048051E+07,  1.559678212369978E+04,  5.266333668329224E+00,  2.913580525176256E+01, -9.880398577735150E-04,
2461296.500000000, A.D. 2026-Sep-13 00:00:00.0000,  1.479964055071713E+08, -2.726079455255110E+07,  1.550469621854462E+04,  4.766337526902927E+00,  2.922869828891491E+01, -1.151074877045133E-03,
2461297.500000000, A.D. 2026-Sep-14 00:00:00.0000,  1.483865601441474E+08, -2.473174748132430E+07,  1.539676449153945E+04,  4.264782370536725E+00,  2.931255598838920E+01, -1.352702519975324E-03,
2461298.500000000, A.D. 2026-Sep-15 00:00:00.0000,  1.487333224126676E+08, -2.219584354376266E+07,  1.527020786240045E+04,  3.761924436090119E+00,  2.938743269284971E+01, -1.580094874748639E-03,
